[{"OBJECT_NAME":"STARLINK-3419","OBJECT_ID":"2022-010H","EPOCH":"2026-03-09T20:57:01.604736","MEAN_MOTION":15.08823731,"ECCENTRICITY":0.00012931,"INCLINATION":53.216,"RA_OF_ASC_NODE":278.2949,"ARG_OF_PERICENTER":119.6861,"MEAN_ANOMALY":240.426,"EPHEMERIS_TYPE":0,"CLASSIFICATION_TYPE":"U","NORAD_CAT_ID":51463,"ELEMENT_SET_NO":999,"REV_AT_EPOCH":22654,"BSTAR":0.00019341287,"MEAN_MOTION_DOT":2.79e-5,"MEAN_MOTION_DDOT":0},{"OBJECT_NAME":"CZ-6A DEB","OBJECT_ID":"2022-151BX","EPOCH":"2026-03-09T18:04:18.424992","MEAN_MOTION":15.16566225,"ECCENTRICITY":0.00404449,"INCLINATION":98.6231,"RA_OF_ASC_NODE":169.9483,"ARG_OF_PERICENTER":104.1368,"MEAN_ANOMALY":256.4361,"EPHEMERIS_TYPE":0,"CLASSIFICATION_TYPE":"U","NORAD_CAT_ID":54328,"ELEMENT_SET_NO":999,"REV_AT_EPOCH":10563,"BSTAR":0.0050960293,"MEAN_MOTION_DOT":0.00102794,"MEAN_MOTION_DDOT":0}]
